name,state,dealer_code,phone,street,city,zip,lat,lng,url
Bmw Of Anchorage,AK,28786,(877) 583-5028,61.1509,-149.8679,https://www.bmwofanchorage.com
BMW of Montgomery,AL,29187,(800) 996-9705,32.366806,-86.299969,https://www.bmwofmontgomery.com/
BMW of Birmingham,AL,21851,(866) 655-1204,33.518589,-86.810356,https://www.birminghambmw.com/
Century BMW,AL,86773,(256) 536-3800,34.738228,-86.601791,https://www.century-bmw.com/
BMW of Tuscaloosa,AL,44780,(205) 345-9811,33.169079,-87.490982,https://www.bmwoftuscaloosa.com/
BMW of Mobile,AL,34537,(251) 476-2550,30.695366,-88.039894,https://www.bmwofmobile.com/
BMW of Little Rock,AR,44821,(501) 224-3200,34.744461,-92.411285,https://www.bmwoflittlerock.com/
BMW of Northwest Arkansas,AR,31833,(888) 571-7341,36.306110,-94.180199,https://www.bmwofnwa.com/
BMW Tucson,AZ,32082,(520) 549-2167,32.131981,-110.955528,https://www.bmwoftucson.com/
Chapman BMW Chandler,AZ,10729,(480) 344-4269,33.430981,-111.939392,https://www.chapmanbmwchandler.com/
Chapman BMW On Camelback,AZ,10729,(602) 308-4269,33.508598,-112.043877,https://www.chapmanbmwoncamelback.com/
Arrowhead BMW,AZ,46886,(833) 700-1269,33.665199,-112.186829,https://www.arrowheadbmw.com/
BMW North Scottsdale,AZ,20741,(877) 705-3224,33.640869,-111.926041,https://www.bmwnorthscottsdale.com/
Irvine BMW,CA,21188,(949) 649-8787,33.662874,-117.749196,https://www.irvinebmw.com/
BMW of Ontario,CA,34821,(909) 390-7888,34.060770,-117.552176,https://www.bmwofontario.com/
BMW of Riverside,CA,40335,(951) 373-5000,33.948207,-117.396355,https://www.bmwofriverside.com/
BMW Encinitas,CA,30956,(760) 753-6301,33.053174,-117.262601,https://www.autonation.com/
BMW of Vista,CA,44610,(760) 305-5770,33.179291,-117.239685
BMW of San Diego,CA,24335,(858) 560-5050,32.824873,-117.155638,https://www.bmwofsandiego.com/
BMW of Murrieta,CA,35744,(951) 249-8000,33.561991,-117.174239,https://www.bmwofmurrieta.com/
BMW of Escondido,CA,51458,(760) 745-3000,33.131759,-117.090637,https://www.bmwofescondido.com/
BMW of El Cajon,CA,32467,(619) 442-8888,32.794060,-116.962196,https://www.bmwofelcajon.com/
BMW of Palm Springs,CA,44427,(760) 324-7071,"3737 E Palm Canyon Dr","Palm Springs","92264-5205",33.801800,-116.508000,https://www.bmwofpalmsprings.com
BMW of Humboldt Bay,CA,29869,(707) 839-4269,40.866920,-124.082603,https://www.bmwofhumboldtbay.com/
BMW of Visalia,CA,86335,(559) 732-4700,36.327007,-119.292030,https://www.bmwofvisalia.com/
BMW Concord,CA,4497,(925) 682-3577,37.972694,-122.056404,https://www.bmwconcord.com/
Hansel BMW of Santa Rosa,CA,23779,(707) 578-4717,38.464870,-122.730026,https://www.hanselbmwofsantarosa.com/
Valley BMW,CA,21616,(209) 575-0269,37.687000,-121.011398,https://www.valley-bmw.com/
Crevier BMW,CA,36721,(657) 231-5040,33.705776,-117.865822,https://www.crevierbmw.com/
Niello BMW Sacramento,CA,4618,(916) 486-1011,38.602985,-121.437782,https://bmw.niello.com/
BMW of Roseville,CA,4923,(916) 790-1990,38.752300,-121.254997,https://www.bmwofroseville.com/
BMW of Chico,CA,42367,(530) 893-1300,39.731789,-121.822998,https://www.bmwofchico.com/
BMW Fresno,CA,39315,(559) 447-6700,36.850708,-119.787659,https://www.bmwfresno.com/
Sterling BMW,CA,86513,(949) 645-5900,33.617321,-117.908333,https://www.sterlingbmw.com/
BMW of Fairfield,CA,47859,(707) 402-1599,38.259079,-122.060402,https://www.bmwfairfield.com/
BMW of Monrovia,CA,31642,(626) 358-4269,34.144550,-118.001663,https://www.bmwofmonrovia.net/
Valencia BMW,CA,22180,(661) 254-8000,34.404621,-118.556870,https://www.valenciabmw.com/
Bob Smith BMW,CA,4637,(818) 346-3144,34.204140,-118.605400,https://bobsmithbmw.com/
Rusnak BMW,CA,86846,(805) 496-6500,34.171200,-118.836700,https://www.rusnakbmw.com/
BMW of Camirillo/Steve Thomas BMW,CA,17990,(805) 482-8878,34.219540,-119.059364,https://www.bmwofcamarillo.com/
BMW of Bakersfield,CA,24781,(661) 396-4040,35.340881,-119.061218,https://www.bmwofbakersfield.com/
BMW Santa Barbara,CA,26718,(805) 682-2000,34.437740,-119.800980,https://www.bmwsantabarbara.com/
BMW of Santa Maria,CA,65734,(805) 614-0306,34.951759,-120.419983,https://www.bmwsm.com/
BMW of San Luis Obispo,CA,22820,(805) 543-4423,35.279598,-120.663002,https://www.bmwofslo.com/
Santa Monica BMW,CA,4660,(310) 829-3535,34.029770,-118.474800,https://www.smbmw.com/
BMW of San Francisco,CA,49544,(415) 551-2639,37.775101,-122.403900,https://www.bmwsf.com/
East Bay BMW,CA,10731,(888) 593-7018,37.840260,-122.293053,https://www.eastbaybmw.com/
BMW of Buena Park,CA,47046,(714) 598-3738,33.868530,-117.998680,https://www.bmwbuenapark.com/
BMW of Fremont,CA,24856,(510) 224-4820,37.510601,-121.982201,https://www.bmwoffremont.com/
BMW of Mountain View,CA,21618,(650) 943-1000,37.403740,-122.116600,https://www.bmwofmountainview.com/
Peter Pan BMW,CA,32652,(650) 349-9077,37.560471,-122.267128,https://www.peterpanbmw.com/
Weatherford BMW,CA,4514,(510) 654-8280,37.859730,-122.289009,https://www.weatherfordbmw.com/
BMW of San Rafael,CA,42869,(415) 482-2000,37.982410,-122.531578,https://www.bmwofsanrafael.com/
Stevens Creek BMW,CA,22083,(408) 249-9070,37.323101,-121.957497,https://www.stevenscreekbmw.com/
BMW of Sherman Oaks,CA,47724,(818) 907-9995,34.154159,-118.448273,https://www.bmwshermanoaks.com/
BMW of Monterey,CA,30822,(866) 299-5459,36.586201,-121.877998,https://www.bmwmonterey.com/
Century West BMW,CA,20268,(818) 432-5800,34.163021,-118.370132,https://www.centurywestbmw.com/
McKenna BMW Norwalk,CA,96733,(562) 868-3233,33.918690,-118.068520,https://www.mckennabmw.com/
New Century BMW,CA,17966,(626) 570-8444,34.067501,-118.084396,https://www.newcenturybmw.com/
Long Beach BMW,CA,31643,(562) 427-5494,33.832790,-118.188057,https://www.longbeachbmw.com/
BMW of Downtown Los Angelas/Nick Alexander Imports,CA,4942,(323) 583-1901,34.007870,-118.211769,https://www.bmwdtla.com/
BMW of San Francisco,CA,49544,(628) 221-7930,37.775101,-122.403900,https://www.bmwsf.com/
Beverly Hills BMW,CA,21390,(310) 358-7800,34.066540,-118.379372,https://www.bmwofbeverlyhills.com/
Pacific BMW,CA,76837,(818) 246-5600,34.152901,-118.254700,https://www.pacificbmw.com/
South Bay BMW,CA,41903,(310) 939-7300,33.864590,-118.396149,https://www.southbaybmw.com/
Winslow BMW of Colorado Springs,CO,16418,(719) 473-1373,38.833980,-104.821365,https://www.winslowbmw.com/
Schomp BMW of Highlands Ranch,CO,5042,(303) 471-3772,39.553440,-104.869736,https://schompbmw.com/
BMW of Denver Downtown,CO,39314,(303) 759-4646,39.733551,-104.987030,https://www.bmwofdenverdowntown.com/
Gebhardt BMW,CO,5080,(720) 974-1000,40.017586,-105.257286,https://www.gebhardtbmw.com/
BMW of Loveland,CO,50070,(970) 292-5200,40.406651,-105.060760,https://www.bmwofloveland.com/
BMW of North Haven,CT,59127,(203) 239-7272,41.390820,-72.859230,https://www.bmwofnorthhaven.com/
BMW of New London,CT,36582,(860) 447-3141,41.355080,-72.103950,https://www.bmwofnewlondon.com/
New Country BMW,CT,20173,(860) 522-6134,41.768070,-72.662910,https://www.newcountrybmw.com/
Continental BMW of Darien,CT,23200,(203) 656-1804,41.078220,-73.470520,https://www.bmwdarien.com/
BMW of Waterbury,CT,43039,(860) 274-7515,41.558350,-73.051460,https://www.bmwofwaterbury.com/
BMW of Ridgefield,CT,51085,(203) 438-0471,41.281300,-73.498840,https://www.bmwofridgefield.com/
BMW of Bridgeport,CT,24618,(203) 334-1672,41.173820,-73.208580,https://www.bmwofbridgeport.com/
BMW of Greenwich,CT,40808,(203) 413-1900,41.031540,-73.629150,https://www.bmwofgreenwich.com/
Union Park BMW,DE,81000,(302) 658-7245,39.759800,-75.572510,https://www.unionparkbmw.com/
I. G. Burton BMW,DE,36493,(302) 424-3042,38.730530,-75.585030,https://www.igburtonbmw.com/
Tom Bush BMW Orange Park,FL,46778,(904) 777-2500,30.177440,-81.737030,https://www.tombushbmwop.com/
Bert Smith International,FL,93777,(727) 527-1111,27.819620,-82.679390,https://www.bertsmithbmw.com/
Ferman BMW,FL,49134,(727) 785-3900,28.087740,-82.739820,https://www.fermanbmw.com/
BMW of Tampa,FL,50929,(813) 936-5500,28.039940,-82.442070,https://www.bmwoftampa.com/
Fields BMW Lakeland,FL,10736,(863) 816-1234,28.070120,-81.958000,https://www.fieldsbmwlakeland.com/
BMW of Ocala,FL,47727,(352) 861-0234,29.151850,-82.184590,https://www.bmwinocala.com/
Melbourne BMW,FL,48600,(321) 727-3788,28.078270,-80.636550,https://www.bmwinmelbourne.com/
Fields BMW South Orlando,FL,96255,(407) 956-6300,28.368380,-81.411080,https://www.fieldsbmworlando.com/
BMW of Tallahasse/Capital BMW,FL,20412,(866) 203-6076,30.438680,-84.305940,https://www.capital-bmw.com/
Fields BMW of Daytona,FL,29867,(386) 274-1200,29.192320,-81.059520,https://www.fieldsbmwofdaytona.com/
BMW of Gainesville,FL,34748,(352) 376-4551,29.678050,-82.372650,https://www.bmwofgainesville.com/
BMW of Wesley Chapel,FL,36637,(813) 907-3600,28.190580,-82.351350,https://www.bmwofwesleychapel.com/
BMW of South Miami/South Motors BMW,FL,96603,(305) 256-2200,25.631150,-80.337040,https://www.bmwofsouthmiami.com/
BMW of Sarasota,FL,32147,(941) 923-2700,27.246880,-82.487220,https://www.bmwofsarasota.com/
Tom Bush BMW Jacksonville,FL,46778,(904) 725-0911,30.334930,-81.586960,https://www.tombushbmw.com/
Braman BMW,FL,20626,(305) 571-1200,25.813060,-80.190930
Lauderdale BMW of Pembroke Pines,FL,75784,(954) 620-5050,26.021040,-80.317310,https://www.bmwofpembrokepines.com/
BMW of Fort Lauderdale,FL,75784,(954) 527-3800,26.137260,-80.138770,https://www.bmwoffortlauderdale.com/
BMW of Coconut Creek, XXXX,(877) 340-5841,26.2754,-80.1846,https://www.bmwofcoconutcreek.com/
Vista BMW,FL,46697,(954) 942-7400,26.277350,-80.099360
Germain BMW of Naples,FL,56779,(239) 643-2220,26.213600,-81.765240,https://www.germainbmw.com/
BMW of Fort Myers,FL,22081,(239) 433-8378,26.552450,-81.868130,https://www.bmwoffortmyers.com/
Sandy Sansing BMW,FL,10698,(850) 477-1855,30.484840,-87.188490,https://www.sandysansingbmw.com/
Braman Motorcars of Jupiter,FL,46891,(561) 688-7000,26.890720,-80.117170,https://www.bramanbmw.com/
BMW of Fort Walton Beach,FL,23805,(850) 863-2161,30.421490,-86.631760,https://www.bmwfwb.com/
Coggin BMW Treasure Coast,FL,21553,(772) 429-8300,27.373280,-80.325600,https://www.cogginbmw.com/
BMW of Delray Beach,FL,46586,(561) 491-2329,26.458250,-80.089330,https://www.bmwdelraybeach.com/
BMW of Albany,GA,26726,(229) 883-2040,31.600900,-84.179500,https://www.bmwofalbany.com/
Taylor BMW,GA,36322,(866) 463-5572,33.528100,-82.079400,https://www.taylorbmw.com/
Critz BMW,GA,25000,(912) 354-7000,32.042000,-81.097200,https://www.critzbmw.com/
Athens BMW,GA,26540,(706) 549-5340,33.945800,-83.381900,https://www.athensbmw.com/
BMW of Gwinnett Place,GA,20648,(770) 476-8800,33.946100,-84.132900,https://www.bmwofgwinnettplace.com/
United BMW,GA,45051,(866) 413-1521,34.043500,-84.213800,https://www.unitedbmw.com/
Nalley BMW of Decatur,GA,26715,(404) 292-1400,33.786800,-84.278300,https://www.nalleybmw.com/
BMW of Macon,GA,22819,(478) 757-7000,32.845400,-83.694200,https://www.bmwofmacon.com/
Global Imports BMW,GA,21850,(800) 263-0137,33.902200,-84.438500,https://www.atlantabmw.com/
BMW of Columbus,GA,26701,(706) 596-2888,32.524600,-84.940800,https://www.bmwofcolumbus.com/
BMW of South Atlanta,GA,30955,(770) 969-0755,33.582500,-84.565600,https://www.bmwofsouthatlanta.com/
BMW of Honolulu,HI,76731,(808) 597-1225,21.303300,-157.860700,https://www.bmwhawaii.com/
BMW of Hawaii(KONA),HI,XXXXX,(808) 930-3400,19.644088,-156.002781,https://www.bmwbigisland.com/
BMW of Maui,HI,76731,(808) 877-4269,20.871000,-156.461200,https://www.bmwofmaui.com/
BMW of Des Moines,IA,29672,(515) 989-5681,41.523200,-93.633900,https://www.bmwdesmoines.com/
Kimberly BMW of Davenport,IA,26865,(563) 391-8300,41.572200,-90.588100,https://www.bmwofdavenport.com/
Dubuque BMW,IA,46387,(563) 583-7345,42.508300,-90.699500,https://www.dubuquebmw.com/
BMW of North Liberty,IA,46872,(319) 626-9500,41.749200,-91.608700,https://www.bmwofnorthliberty.com/
BMW of Idaho Falls,ID,21538,(208) 529-4269,43.493000,-112.033600,https://www.bmwofidahofalls.com/
Peterson BMW of Boise,ID,11010,(888) 295-8415,43.590200,-116.281400,https://www.petersonbmw.com/
Newbold BMW,IL,36688,(618) 628-7300,38.589200,-89.961800,https://www.newboldbmw.com/
Bill Jacobs BMW,IL,26792,(630) 357-1200,41.750700,-88.162600,https://www.billjacobsbmw.com/
Perillo BMW Inc.,IL,46786,(312) 981-0000,41.900300,-87.652700,https://www.perillobmw.com/
BMW of Elmhurst/Elmhurst BMW,IL,85200,(630) 833-7945,41.905700,-87.940600,https://www.elmhurstbmw.com/
Fields BMW Northfield,IL,96628,(847) 441-5300,42.106300,-87.757600,https://www.fieldsbmwnorthfield.com/
Patrick BMW,IL,86716,(847) 843-4000,42.053800,-88.079600,https://www.patrickbmw.com/
BMW of Peoria,IL,23968,(309) 692-4840,40.744300,-89.618600,https://www.bmwofpeoria.com/
Laurel BMW of Westmont,IL,24987,(630) 654-5400,41.816000,-87.973700,https://www.laurelbmw.com/
BMW of Orland Park,IL,39797,(708) 460-4545,41.617800,-87.850900,https://www.bmwoforlandpark.com/
Karl Knauz BMW,IL,52800,(847) 604-5000,42.270800,-87.860200,https://www.knauzbmw.com/
BMW of Crystal Lake,IL,46518,(815) 455-4330,42.238900,-88.335800,https://www.bmwofcrystallake.com/
Serra BMW Champaign/BMW of Champaign,IL,39450,(217) 356-0303,40.139700,-88.260100,https://www.serrabmwchampaign.com/
Isringhausen Imports,IL,53781,(217) 528-2042,39.803300,-89.667300,https://www.isringhausen.com/
BMW of Bloomington,IL,34909,(309) 661-2691,40.479400,-88.948600,https://www.bmwofbloomington.com/
Bachrodt BMW,IL,20415,(815) 332-4700,42.284200,-89.031400,https://www.loubachrodtbmw.com/
BMW of Barrington,IL,62900,(847) 381-8900,42.150500,-88.152800,https://www.bmwofbarrington.com/
BMW of Schererville,IN,34883,(219) 864-7333,41.489000,-87.469100,https://www.bmwofschererville.com/
D-Patrick Motoplex,IN,36639,(812) 473-6590,37.976900,-87.475600,https://www.dpat.com/
BMW of Fort Wayne,IN,46288,(866) 938-0974,41.105600,-85.238000,https://www.bmwfortwayne.com/
Basney BMW,IN,46389,(574) 272-8504,41.694900,-86.189300,https://www.basneybmw.com/
BMW of Lafayette,IN,56843,(765) 449-2800,40.373600,-86.833900,https://www.bmwoflafayette.com/
Dreyer & Reinbold, Inc.,IN,27600,(317) 573-0200,39.931200,-86.110900,https://www.dreyerreinboldbmwnorth.com/
BMW of Topeka,KS,41274,(785) 266-8480,39.015200,-95.699500,https://www.bmwtopeka.com/
BMW of Wichita,KS,44503,(316) 779-2613,37.657200,-97.247300,https://www.bmwofwichita.com/
Baron BMW,KS,31015,(913) 722-5100,39.020400,-94.638800,https://www.baronbmw.com/
BMW of Bowling Green,KY,50229,(270) 745-0001,36.969000,-86.456100,https://www.bmwofbowlinggreen.com
BMW of Louisville,KY,43381,(502) 499-5080,38.218700,-85.577400,https://www.bmwoflouisville.com
Bluegrass BMW,KY,32923,(270) 444-0660,37.074200,-88.656100,https://www.bluegrassbmw.com
Don Jacobs BMW,KY,86627,(859) 276-3546,38.012000,-84.525600,https://www.donjacobsbmw.com
Walker BMW,LA,46550,(318) 445-6678,31.274700,-92.490400,https://www.walkerbmw.com
Orr BMW of Shreveport,LA,43764,(318) 629-1269,32.484800,-93.737100,https://www.orrbmw.com
Brian Harris BMW,LA,76504,(225) 754-1200,30.425400,-91.072900,https://www.brianharrisautogroup.com/bmw
Peake BMW,LA,20721,(504) 469-6165,30.007400,-90.239300,https://www.peakebmw.com
Moss Motors Inc,LA,46753,(337) 769-2690,30.208300,-92.051600,https://www.mossbmw.com
South Shore BMW,MA,51008,(781) 982-4556,42.162500,-70.944200,https://www.southshorebmw.com
BMW Certified Preowned Medford,MA,34400,(617) 731-8700,42.418400,-71.106200,https://www.herbchambersbmw.com
BMW of Cape Cod,MA,36635,(888) 306-0995,41.674200,-70.301800,https://www.bmwofcapecod.com
Berkshire BMW,MA,50201,(413) 443-4702,42.453000,-73.254000,https://www.berkshirebmw.com
BMW of West Springfield,MA,32111,(413) 301-9053,42.120800,-72.641100,https://www.bmwofwestspringfield.com
Herb Chambers BMW,MA,34400,(617) 731-1700,42.322800,-71.120300,https://www.herbchambersbmw.com
BMW of Sudbury,MA,31026,(508) 903-5300,42.383800,-71.416800,https://www.bmwofsudbury.com
BMW of Shrewsbury,MA,46539,(508) 581-5500,42.286500,-71.714700,https://www.bmwofshrewsbury.com
BMW of Sudbury Wholesale Parts Annex,MA,31026,(877) 872-9956,42.384000,-71.416600,https://www.bmwofsudbury.com/parts
BMW of Norwood,MA,51007,(781) 762-2691,42.183400,-71.194800,https://www.bmwofnorwood.com
BMW of Peabody,MA,10699,(978) 532-8300,42.532200,-70.958400,https://www.bmwofpeabody.com
BMW of Bel Air,MD,51009,(443) 640-1000,39.536600,-76.354100,https://www.bmwofbelair.com
BMW of Annapolis,MD,32146,(410) 349-2509,38.985900,-76.529400,https://www.bmwofannapolis.com
BMW of Owings Mills,MD,48289,(410) 902-8700,39.419800,-76.780100,https://www.bmwofowingsmills.com
BMW of Catonsville,MD,40305,(410) 744-2000,39.272300,-76.733100,https://www.bmwofcatonsville.com
BMW of Annapolis,MD,32146,(410) 349-9312,38.986000,-76.529000,https://www.bmwofannapolis.com
BMW of Towson,MD,51009,(667) 930-2458,39.401500,-76.601900,https://www.bmwoftowson.com
BMW of Rockville,MD,50948,(301) 984-8989,39.058200,-77.127400,https://www.bmwofrockville.com
Passport BMW,MD,35797,(301) 423-2700,38.807600,-76.906400,https://www.passportbmw.com
BMW of Silver Spring,MD,79100,(301) 890-3000,39.070700,-76.978700,https://www.bmwofsilverspring.com
BMW of Westbrook,ME,76472,(207) 854-3200,43.682000,-70.355000,https://www.bmwofwestbrook.com
BMW of Traverse City,MI,33540,(231) 922-2002,44.741000,-85.600600,https://www.bmwoftraversecity.com
BMW of Okemos,MI,29189,(517) 853-2600,42.702600,-84.416200,https://www.bmwofokemos.com
BMW of Ann Arbor,MI,50336,(734) 663-3309,42.253800,-83.715100,https://www.bmwofannarbor.com
BMW of Grand Blanc,MI,50888,(810) 695-4400,42.925300,-83.632700,https://www.bmwofgrandblanc.com
Zeigler BMW,MI,96774,(269) 375-4500,42.229600,-85.651300,https://www.zeiglerbmw.com
BMW of Farmington Hills,MI,51049,(248) 306-6800,42.506400,-83.418800,https://www.bmwoffarmingtonhills.com
Sharpe BMW,MI,86862,(616) 452-5101,42.930600,-85.663200,https://www.sharpebmw.com
BMW of Rochester Hills,MI,50498,(248) 997-7700,42.662800,-83.134100,https://www.bmwofrochesterhills.com
BMW of Bloomfield Hills,MI,51106,(248) 642-6565,42.583900,-83.245100,https://www.bmwbloomfieldhills.com
BMW of Farmington Hills,MI,51049,(248) 473-8100,42.506600,-83.418700,https://www.bmwoffarmingtonhills.com
Park Place BMW,MN,21359,(507) 282-9468,44.048100,-92.492600,https://www.parkplace-bmw.com
BMW of Minnetonka,MN,30821,(952) 303-7500,44.969600,-93.476700,https://www.bmwofminnetonka.com
Motorwerks BMW,MN,30414,(952) 888-2700,44.862500,-93.332700,https://www.motorwerksbmw.com
BMW of West St. Louis,MO,44013,(636) 227-5454,38.573900,-90.507400,https://www.bmwofstlouis.com
BMW of Springfield,MO,20416,(417) 889-9200,37.160900,-93.260300,https://www.bmwofspringfield.com
BMW of Kansas City South,MO,41681,(816) 501-2700,38.926200,-94.607700,https://www.bmwofkansascitysouth.com
BMW of Columbia,MO,26273,(573) 446-2691,38.958400,-92.366800,https://www.bmwofcolumbia.com
Plaza Motor Company,MO,21181,(314) 301-1704,38.637700,-90.374000,https://www.plazabmw.com
Autohaus BMW of Maplewood,MO,24024,(314) 727-8870,38.612100,-90.329200,https://www.autohausbmw.com
Plaza Motor Company,MO,21181,(314) 301-1705,38.637700,-90.374000,https://www.plazabmw.com
Galleria BMW,MS,43384,(228) 232-0333,30.439000,-89.041600,https://www.galleriabmw.com
BMW of Jackson,MS,49543,(601) 354-2269,32.330300,-90.176200,https://www.bmwofjackson.net
BMW of Meridian,MS,41053,(601) 483-8131,32.351000,-88.693500,https://www.bmwofmeridian.com
Valley Auto World BMW,NC,36752,(910) 867-7000,35.085300,-78.970900,https://www.valleyautoworldbmw.com
BMW of Wilmington,NC,42766,(910) 392-2700,34.241700,-77.870600,https://www.bmwofwilmington.com
Hendrick BMW,NC,66788,(866) 755-7302,35.107900,-80.745200,https://www.hendrickbmw.com
Flow BMW,NC,15268,(336) 788-3333,36.027800,-80.270700,https://www.flowbmw.com
BMW of Southpoint,NC,26338,(919) 897-2137,35.905500,-78.943800,https://www.bmwofsouthpoint.com
BMW of Greensboro,NC,51991,(336) 323-3900,36.068500,-79.819800,https://www.bmwofgreensboro.com
BMW of Asheville,NC,33147,(828) 681-9900,35.530000,-82.527900,https://www.bmwofashville.com
Sale BMW,NC,16378,(252) 522-3611,35.270700,-77.581600,https://www.salebmw.com
Leith BMW,NC,55200,(919) 876-5432,35.858200,-78.580200,https://www.leithbmw.com
Hendrick BMW Certified Pre-Owned,NC,66788,(704) 535-0885,35.197200,-80.744600,https://www.hendrickbmw.com
Hendrick BMW Northlake,NC,66788,(704) 379-3100,35.345600,-80.855400,https://www.hendrickbmwnorthlake.com
BMW of Omaha,NE,61100,(402) 393-9700,41.269000,-96.073400,https://www.bmwofomaha.com
BMW of Lincoln,NE,23071,(402) 479-7500,40.843300,-96.675900,https://www.bmwoflincoln.com
Tulley BMW Manchester,NH,16815,(603) 644-2691,42.960800,-71.444600,https://www.tulleybmw.com
Tulley BMW Nashua,NH,16815,(603) 888-5050,42.749700,-71.492600,https://www.tulleybmw.com
BMW of Stratham,NH,29461,(603) 772-0000,43.025100,-70.902300,https://www.bmwofstratham.com
Open Road BMW,NJ,56738,(732) 839-4500,40.574500,-74.326600,https://www.openroadbmwedison.com
Princeton BMW,NJ,42868,(609) 570-1520,40.310500,-74.612700,https://www.princetonbmw.com
Flemington BMW,NJ,23418,(908) 788-2691,40.513200,-74.857000,https://www.flemingtonbmw.com
BMW of Bloomfield,NJ,26717,(973) 748-8200,40.799700,-74.187200,https://www.bmwofbloomfield.com
Paul Miller BMW,NJ,22227,(973) 696-6060,40.889800,-74.258800,https://www.paulmillerbmw.com
Park Avenue BMW,NJ,68500,(201) 843-7900,40.856700,-74.061700,https://www.parkavebmw.com
BMW of Ramsey,NJ,46579,(201) 258-6000,41.058800,-74.140200,https://www.bmwoframsey.com
BMW of Mt. Laurel,NJ,31638,(856) 840-1400,39.944200,-74.914300,https://www.bmwofmtlaurel.com
BMW of Turnersville,NJ,21295,(856) 516-6500,39.743700,-75.027700,https://www.bmwofturnersville.com
BMW of Freehold,NJ,30462,(732) 984-6006,40.247000,-74.291600,https://www.bmwoffreehold.com
BMW of Bridgewater,NJ,21102,(908) 287-1800,40.594300,-74.624300,https://www.bmwofbridgewater.com
Circle BMW,NJ,66771,(732) 440-1200,40.204800,-74.062600,https://www.circlebmw.com
BMW of Newton,NJ,34559,(973) 579-2600,41.065000,-74.750200,https://www.bmwofnewton.com
BMW of Morristown,NJ,16856,(973) 455-0700,40.796300,-74.478000,https://www.bmwofmorristown.com
BMW of Springfield,NJ,43005,(973) 379-7744,40.717500,-74.323400,https://www.bmwofspringfieldnj.com
BMW of Atlantic City,NJ,30374,(609) 568-9200,39.400500,-74.514400,https://www.bmwofatlanticcity.com
BMW of Roxbury,NJ,26711,(973) 627-0700,40.875700,-74.580200,https://www.bmwofroxbury.com
BMW of Tenafly,NJ,76350,(201) 568-9000,40.925800,-73.950700,https://www.bmwoftenafly.com
Santa Fe BMW,NM,48291,(505) 474-0066,35.636400,-106.002700,https://www.santafebmw.com
Sandia BMW,NM,48401,(866) 428-9748,35.106900,-106.564800,https://www.sandiabmw.com
Bill Pearce BMW,NV,26419,(775) 826-2100,39.493900,-119.797500,https://www.billpearcebmw.com
BMW of Las Vegas,NV,21294,(702) 570-0279,36.068600,-115.243500,https://www.bmwoflasvegas.com
BMW of Henderson,NV,21294,(702) 570-0278,36.033500,-115.043900,https://www.bmwofhenderson.com
BMW of Greenwich-Mamaroneck,NY,40808,(914) 670-0011,40.949800,-73.732500,https://www.bmwofgreenwich.com
BMW of Brooklyn,NY,56000,(718) 759-5940,40.650800,-73.969700,https://www.bmwofbrooklyn.com
Habberstad BMW of Bay Shore,NY,40800,(631) 647-6700,40.730800,-73.256800,https://www.habberstadbmwofbayshore.com
Keeler BMW,NY,51200,(518) 785-4197,42.751000,-73.756400,https://www.keelerbmw.com
BMW of Bayside,NY,10695,(877) 244-9910,40.757200,-73.773800,https://www.bmwbayside.com
BMW of Buffalo,NY,52082,(716) 505-2100,42.991400,-78.823900,https://www.bmwofbuffalo.com
Rallye BMW,NY,69000,(516) 393-0000,40.770800,-73.640600,https://www.rallyebmw.com
Wide World BMW,NY,25770,(845) 425-2600,41.133900,-74.059200,https://www.wideworldbmw.com
BMW of Manhattan,NY,65775,(212) 586-2269,40.764700,-73.990300,https://www.bmwnyc.com
BMW of South Albany,NY,43383,(518) 463-3141,42.595700,-73.759600,https://www.bmwofsouthalbany.com
BMW of Rochester,NY,34520,(585) 359-7373,43.071600,-77.642900,https://www.bmwofrochester.com
Burdick BMW,NY,86854,(315) 459-6000,43.152200,-76.220900,https://www.burdickbmw.com
BMW of Freeport,NY,41518,(516) 223-6160,40.657000,-73.583100,https://www.bmwoffreeport.com
BMW of the Hudson Valley,NY,21614,(845) 462-1030,41.653300,-73.876600,https://www.bmwhv.com
BMW of Westchester,NY,33326,(914) 761-5555,41.028800,-73.773700,https://www.westchesterbmw.com
Orange County BMW,NY,20989,(845) 782-4269,41.313800,-74.126300,https://www.ocbmw.com
Gault Auto Sport BMW,NY,21183,(607) 748-8244,42.094800,-75.965400,https://www.gaultbmw.com
Habberstad BMW,NY,40800,(631) 271-7177,40.815400,-73.355400,https://www.habberstadbmw.com
BMW of Southampton,NY,34521,(631) 283-0888,40.893800,-72.391100,https://www.bmwofsouthampton.com
Competition BMW of Smithtown,NY,22800,(631) 265-2208,40.858700,-73.185800,https://www.competitionbmw.com
BMW of Mt. Kisco,NY,51826,(914) 614-0884,41.207200,-73.726300,https://www.bmwofmountkisco.com
Preston BMW,OH,20635,(330) 965-2766,41.027400,-80.662600,https://www.prestonbmw.com
BMW of Cincinnati North,OH,46631,(513) 782-2832,39.289900,-84.462800,https://www.bmwofcincinnatinorth.com
The BMW Store,OH,96717,(513) 271-8700,39.145000,-84.443200,https://www.bmwstore.com
BMW of Westlake,OH,56357,(440) 845-9333,41.459300,-81.917400,https://www.bmwofwestlake.com
Cain BMW,OH,96644,(330) 494-5588,40.867900,-81.408400,https://www.cainbmw.com
Voss Village BMW,OH,66641,(937) 433-5111,39.633400,-84.221000,https://www.vossbmw.com
BMW of Akron,OH,46222,(330) 762-0791,41.073300,-81.518100,https://www.bmwakron.com
BMW of Dayton,OH,31663,(937) 890-6200,39.880200,-84.202800,https://www.bmwofdayton.com
BMW of Toledo,OH,16345,(419) 842-7900,41.693600,-83.633900,https://www.bmwoftoledo.com
MAG BMW of Dublin,OH,25803,(614) 889-2571,40.104000,-83.131900,https://www.magbmwofdublin.com
Kelly BMW,OH,46615,(614) 471-2277,40.047700,-82.919200,https://www.kellybmw.com
BMW Cleveland,OH,95801,(440) 542-0600,41.388600,-81.480800,https://www.bmwcleveland.com
Classic BMW,OH,96499,(440) 585-9990,41.638600,-81.460300,https://www.classicbmw.com
Jackie Cooper Imports,OK,35071,(866) 597-5676,36.061000,-95.891200,https://www.jackiecooperimports.com
BMW of Tulsa,OK,25786,(918) 663-4444,36.044000,-95.884400,https://www.bmwoftulsa.com
Kuni BMW,OR,36021,(503) 828-0952,45.430900,-122.744600,https://www.kunibmw.com
BMW of Eugene,OR,45332,(541) 342-1763,44.049200,-123.092000,https://www.bmwofeugene.com
BMW of Bend,OR,40807,(541) 382-1711,44.062800,-121.308000,https://www.bmwofbend.com
BMW Portland,OR,36459,(800) 226-7689,45.534700,-122.654600,https://www.bmwportland.com
Medford BMW,OR,49962,(541) 774-8450,42.344000,-122.868000,https://www.medfordbmw.com
BMW of Salem,OR,39668,(503) 399-9541,44.920500,-123.011500,https://www.bmwofsalem.com
BMW of Reading,PA,34753,(877) 866-6272,40.350200,-75.965800,https://www.bmwofreading.com
Wyoming Valley BMW,PA,44721,(570) 287-1133,41.265600,-75.882900,https://www.wyomingvalleybmw.com
Otto's BMW,PA,67600,(866) 265-7073,40.097900,-75.450200,https://www.ottosbmw.com
Thompson BMW,PA,26776,(215) 340-3900,40.330600,-75.126000,https://www.thompsonbmw.com
BMW of Lancaster,PA,43336,(717) 569-4269,40.072000,-76.309700,https://www.bmwoflancaster.com
Daniels BMW,PA,26200,(610) 820-2950,40.578600,-75.515700,https://www.danielsbmw.com
BMW of Williamsport,PA,48081,(570) 567-2021,41.227300,-77.031000,https://www.bmwofwilliamsport.com
New Motors Inc.,PA,46672,(814) 868-4805,42.050000,-80.091400,https://www.newmotorsbmw.com
Apple BMW of York,PA,26713,(717) 845-6689,39.984300,-76.715300,https://www.applebmwofyork.com
BMW of Devon,PA,40713,(610) 687-9350,40.045800,-75.414200,https://www.bmwofdevon.com
BMW of the Main Line,PA,36640,(610) 668-2200,39.985200,-75.273200,https://www.bmwofthemainline.com
Sun Motor Cars BMW,PA,26700,(800) 470-8133,40.228400,-76.930600,https://www.sunmotorcarsbmw.com
Joel Confer BMW,PA,86732,(814) 237-5713,40.831500,-77.856900,https://www.joelconferbmw.com
BMW of Fort Washington,PA,50644,(215) 643-3322,40.139900,-75.207900,https://www.bmwoffortwashington.com
Laurel BMW,PA,66390,(888) 269-3130,40.344400,-78.923500,https://www.laurelbmwpa.com
Bobby Rahal BMW of South Hills,PA,26725,(724) 746-2600,40.306700,-80.133600,https://www.bobbyrahalbmw.com
Sewickley BMW,PA,86327,(412) 741-6400,40.542300,-80.179800,https://www.sewickleybmw.com
P & W BMW,PA,34910,(412) 682-0788,40.454400,-79.948600,https://www.pandwbmw.com
A & L BMW,PA,86813,(412) 373-6071,40.437100,-79.774300,https://www.anlbmw.com
Tom Hesser BMW,PA,16734,(570) 343-1221,41.426400,-75.654300,https://www.tomhesserbmw.com
Autogermana BMW,PR,10742,(787) 474-7000,18.388000,-66.104000,https://www.autogermanabmw.com
BMW of Warwick,RI,26703,(401) 824-2399,41.705200,-71.498000,https://www.bmwofwarwick.com
BMW of Newport,RI,43006,(401) 847-9600,41.518100,-71.297300,https://www.bmwofnewport.com
BMW of Columbia,SC,31384,(803) 404-5400,34.053700,-81.145800,https://www.bmwofcolumbia.com
Century BMW,SC,21470,(864) 234-6437,34.851700,-82.336700,https://www.century-bmw.com
Hilton Head BMW,SC,36634,(843) 815-1501,32.287300,-80.920900,https://www.hiltonheadbmw.com
Rick Hendrick BMW Charleston,SC,46826,(843) 763-8403,32.793100,-80.013200,https://www.rickhendrickbmw.com
BMW of Florence,SC,36722,(843) 662-8711,34.165600,-79.767300,https://www.bmwofflorence.com
BMW of Myrtle Beach,SC,47212,(843) 848-6800,33.709600,-78.901200,https://www.bmwofmyrtlebeach.com
BMW of Sioux Falls,SD,35121,(866) 980-3526,43.514500,-96.735600,https://www.verneidebmw.com
Rick Hill BMW,TN,56892,(423) 246-7421,36.570100,-82.518600,https://www.rickhillbmw.com
Roadshow BMW,TN,56802,(901) 365-2584,35.052200,-89.850200,https://www.roadshowbmw.com
BMW Certified Pre-Owned Nashville,TN,21234,(615) 850-4040,36.149400,-86.789900,https://www.bmwofnashville.com
BMW of Nashville,TN,21234,(615) 850-4040,36.149400,-86.789900,https://www.bmwofnashville.com
BMW of Chattanooga,TN,21233,(423) 894-5660,35.028100,-85.159400,https://www.bmwofchattanooga.com
Grayson BMW,TN,16694,(865) 693-4555,35.928300,-84.050700,https://www.graysonbmw.com
BMW of Beaumont,TX,21853,(409) 840-3585,30.085800,-94.164300,https://www.bmwofbeaumont.com
BMW of El Paso,TX,36270,(915) 778-9381,31.751600,-106.328700,https://www.bmwofelpaso.com
BMW of Wichita Falls,TX,50946,(940) 766-0293,33.876400,-98.540100,https://www.bmwofwichitafalls.com
Autoplex BMW,TX,26840,(806) 359-2886,35.164800,-101.883400,https://www.autoplexbmw.com
BMW of Plano,TX,50923,(214) 778-2600,33.013800,-96.708000,https://www.bmwofplano.com
BMW of Grapevine,TX,43786,(817) 912-4500,32.934600,-97.078300,https://www.bmwofgrapevine.com
Autobahn Motorcars,TX,47993,(817) 336-0885,32.738900,-97.362400,https://www.shopautobahn.com
BMW of Austin,TX,26167,(512) 343-3500,30.356700,-97.738300,https://www.bmwofaustin.com
BMW of South Austin,TX,44235,(512) 438-7500,30.180600,-97.776000,https://www.bmwofsouthaustin.com
BMW of College Station,TX,43380,(979) 314-2000,30.621600,-96.313100,https://www.bmwofcollegestation.com
BMW of West Houston,TX,43775,(832) 772-9000,29.735700,-95.749500,https://www.bmwwest.com
BMW of Dallas,TX,26731,(972) 763-5528,32.923600,-96.891300,https://www.bmwofdallas.com
Momentum BMW,TX,26747,(713) 596-3100,29.735500,-95.470700,https://www.momentumbmw.com
BMW of Houston North,TX,21471,(281) 775-4400,30.046600,-95.434200,https://www.bmwhoustonnorth.com
Advantage BMW Midtown,TX,28628,(713) 289-1200,29.742900,-95.379000,https://www.advantagebmwhouston.com
BMW of Clear Lake,TX,51029,(281) 557-7000,29.547100,-95.161600,https://www.bmwofclearlake.com
BMW of The Woodlands,TX,45289,(936) 271-3000,30.213600,-95.469400,https://www.bmwofthewoodlands.com
BMW of Temple,TX,42319,(254) 771-0128,31.063800,-97.368900,https://www.bmwoftemple.com
BMW of Arlington,TX,40304,(817) 436-5700,32.682400,-97.110000,https://www.bmwofarlington.com
BMW of Lubbock,TX,50857,(806) 763-8041,33.585100,-101.870400,https://www.bmwoflubbock.com
Bert Ogden BMW,TX,13761,(956) 686-6666,26.217000,-98.237100,https://www.bertogdenbmw.com
Cardenas BMW,TX,10022,(956) 425-2400,26.191300,-97.695900,https://www.cardenasbmw.com
BMW of Dallas Wholesale Parts Annex,TX,26731,(972) 895-3044,32.923600,-96.891300,https://www.bmwofdallas.com
BMW of Corpus Christi,TX,44812,(361) 991-5555,27.707800,-97.369800,https://www.bmwofcorpuschristi.com
BMW of Tyler,TX,43552,(903) 561-7049,32.306400,-95.326700,https://www.bmwoftyler.com
BMW of San Antonio,TX,42164,(210) 732-7121,29.495400,-98.556300,https://www.bmwofsanantonio.com
BMW of the Permian Basin,TX,45533,(432) 522-5900,31.984200,-102.155000,https://www.bmwofthepermianbasin.com
BMW of Murray,UT,55806,(801) 262-2479,40.659200,-111.887600,https://www.bmwofmurray.com
BMW of Pleasant Grove,UT,55806,(801) 443-2000,40.356200,-111.738500,https://www.bmwofpleasantgrove.com
Richmond BMW South,VA,21608,(804) 897-2200,37.434300,-77.601500,https://www.richmondbmw.com
Checkered Flag BMW,VA,25244,(757) 490-1111,36.828400,-76.138200,https://www.checkeredflagbmw.com
Richmond BMW Midlothian,VA,21608,(804) 346-0812,37.635000,-77.493300,https://www.richmondbmwmidlothian.com
Casey BMW,VA,56592,(757) 514-8496,36.870700,-76.465800,https://www.caseybmw.com
BMW of Lynchburg,VA,39741,(434) 385-6226,37.327300,-79.221800,https://www.bmwoflynchburg.com
BMW of Roanoke,VA,51637,(540) 342-3733,37.293800,-79.957800,https://www.bmwofroanoke.com
BMW of Alexandria,VA,36771,(703) 684-8500,38.805700,-77.091300,https://www.bmwofalexandria.com
BMW of Charlottesville,VA,50887,(434) 327-5378,38.020200,-78.478800,https://www.bmwofcharlottesville.com
BMW of Sterling,VA,49851,(571) 933-8222,39.005200,-77.429300,https://www.bmwofsterling.com
BMW of Fairfax,VA,22006,(703) 560-2300,38.872800,-77.242800,https://www.bmwoffairfax.com
The Automaster,VT,16718,(802) 985-8411,44.437400,-73.210200,https://www.theautomasterbmw.com
BMW of Bellevue,WA,10732,(425) 243-5201,47.620500,-122.180900,https://www.bmwbellevue.com
BMW Northwest,WA,46038,(866) 529-3254,47.249900,-122.315500,https://www.bmwnorthwest.com
BMW Seattle,WA,24336,(206) 328-8787,47.592000,-122.314000,https://www.bmwseattle.com
BMW of Spokane,WA,21613,(509) 458-3288,47.656300,-117.431200,https://www.bmwofspokane.com
BMW of Tri-Cities,WA,42277,(509) 943-9839,46.233000,-119.268000,https://www.bmwtricities.com
Enterprise BMW,WI,86302,(920) 749-2020,44.277300,-88.373500,https://www.enterprisebmw.com
BMW of Madison,WI,63766,(608) 443-3900,43.293800,-89.343200,https://www.bmwofmadison.com
International Autos,WI,20133,(414) 543-3000,42.972200,-88.037500,https://www.internationalautosbmw.com
BMW of Milwaukee North,WI,43872,(414) 290-4200,43.148400,-87.964600,https://www.bmwofmilwaukeenorth.com
Moses BMW,WV,15673,(304) 722-4900,38.411800,-81.800200,https://www.mosesbmw.com
CANADA
Birchwood BMW,MB,XXXX,(204) 452-7799,49.882400,-97.318600,https://www.birchwoodbmw.ca
Waterloo BMW,ON,XXXX,(519) 747-0269,43.494700,-80.547600,https://www.bmwofwaterloo.ca
BMW Langley,BC,XXXX,(604) 533-0269,49.114900,-122.644900,https://www.bmwlangley.ca
Otto's BMW,ON,XXXX,(613) 725-3048,45.346800,-75.663500,https://www.bmwottawa.ca
Maranello BMW,ON,XXXX,(416) 213-5699,43.790900,-79.592900,https://www.maranellobmw.com
BMW Autohaus,ON,XXXX,(905) 886-3380,43.807600,-79.451800,https://www.bmwautohaus.ca
Moto Internationale,QC,XXXX,(514) 483-6686,45.464700,-73.603300,https://www.motointernationale.ca
Georgian BMW / Mini,ON,XXXX,(705) 797-4200,44.375300,-79.695200,https://www.georgianbmw.ca
BMW Ville de Québec,QC,XXXX,(418) 681-5000,46.772500,-71.285300,https://www.bmwquebec.com
Suprem Automobile,QC,XXXX,(819) 821-9272,45.366300,-71.982800,https://www.supremautomobile.com
BMW Toronto,ON,XXXX,(416) 623-4269,43.659400,-79.352300,https://www.bmwoftoronto.com
BMW Markham,ON,XXXX,(905) 477-2212,43.857700,-79.329800,https://www.bmwmarkham.com
Parkview BMW,ON,XXXX,(416) 444-4269,43.733600,-79.338200,https://www.parkviewbmw.com
Pfaff BMW,ON,XXXX,(905) 625-7533,43.643900,-79.599600,https://www.pfaffbmw.com
Brian Jessel BMW,BC,XXXX,(604) 222-7788,49.266400,-123.024700,https://www.brianjesselbmw.com
Calgary BMW,AB,XXXX,(403) 253-0338,50.976900,-114.057300,https://www.calgarybmw.com
BMW Gallery,AB,XXXX,(403) 253-0338,51.124800,-114.204000,https://www.bmwgallery.ca
Budds BMW Oakville,ON,XXXX,(905) 845-3577,43.408800,-79.736700,https://www.buddsbmw.com
Policaro BMW,ON,XXXX,(416) 981-9400,43.654400,-79.357900,https://www.policarobmw.ca
BMW Grand River,ON,XXXX,(519) 747-0269,43.466900,-80.456700,https://www.bmwgrandriver.com
BMW Laval,QC,XXXX,(450) 686-7247,45.557200,-73.748000,https://www.bmw-laval.ca
BMW West Island,QC,XXXX,(514) 683-2000,45.482700,-73.785400,https://www.bmwwestisland.com
BMW Durham,ON,XXXX,(905) 619-5522,43.851200,-79.028600,https://www.bmwdurham.com
BMW Sarnia,ON,XXXX,(519) 332-2886,42.984800,-82.355000,https://www.bmwsarnia.com
BMW Regina,SK,XXXX,(306) 525-4269,50.4452,-104.6189,https://www.bmwregina.ca
BMW Regina OPINV,SK,XXXX,(306) 525-4269,50.468247,-104.608951,https://www.bmwregina.ca
BMW Victoria,BC,250-995-9250,48.432...,-123.371...,https://www.bmwvictoria.ca
BMW Nanaimo,BC,250-585-6959,49.187...,-123.950...,https://www.bmwnanaimo.ca
ICELAND
BMW Íslandi - BL ehf,IS,XXXX,(354) 525-8000,64.125042,-21.839102,https://www.bmw.is/is/index.html
U.K
Snows BMW Portsmouth,England,12345,(023) 9424 9233,50.819800,-1.087600,https://www.snowsbmw.com
Halliwell Jones Wilmslow BMW,England,12346,(01625) 684717,53.352700,-2.234700,https://www.halliwelljonesbmw.co.uk
Group 1 Borehamwood BMW,England,12347,(020) 8033 7349,51.672400,-0.270100,https://www.group1bmw.co.uk
Scottland
Douglas Park BMW Edinburgh,Scotland,XXXX,(0131) 573 8718,55.9311,-3.0978,https://www.parks.uk.com
Arnold Clark Glasgow BMW,Scotland,XXXX,(0141) 376 7301,55.8609,-4.2514,https://www.arnoldclark.com
John Clark BMW Aberdeen,Scotland,XXXX,(01224) 952966,57.1497,-2.0943,https://www.john-clark.co.uk
IRELAND
Joe Duffy BMW Dublin,Ireland,XXXX,(01) 864-7777,53.3736,-6.2420,https://www.joeduffy.ie
Colm Quinn BMW Athlone,Ireland,XXXX,(090) 646-5888,53.4189,-7.9407,https://www.colmquinnbmw.ie
Martin Reilly BMW,Tipperary,Ireland,XXXX,(0XX) XXXXXXX,52.3742,-7.9337,https://www.bmw.ie
SPAIN

FRANCE


"""
